#dP2022 11  5 12  0  0.00000000      96 __u+U ITR00 EXT  IAC
## 2234 561600.00000000   900.00000000 59888 0.5000000000000
+  116   C06C07C08C09C10C11C12C13C14C16C19C20C21C22C23C24C25
+        C26C27C28C29C30C32C33C34C35C36C37C38C39C40C41C42C43
+        C44C45C46E01E02E03E04E05E07E08E09E10E11E12E13E14E15
+        E18E19E21E24E25E26E27E30E31E33E34E36G01G02G03G04G05
+        G06G07G08G09G10G11G12G13G14G15G16G17G18G19G20G21G22
+        G23G24G25G26G27G29G30G31G32J03J04R01R02R03R04R05R07
+        R08R09R11R12R13R14R15R17R18R19R20R21R22R24  0  0  0
++        11  9  9 10  8  7  8  8  7 10  8  8 10  9  9  8  8
++         8  8  7 10  8  9  8  7  8  9 10  9 10  9  8 10  8
++         9  9  7  7 11  8  7  8  7  7  8  7  8  7  9  8  7
++         7  7  6  6  7  7  8  7  9  7  7  8  6  7  7  7  6
++         8  9  7  8  7  7  7  7  9  7  8  8  6  7  8  7  8
++         7  7  6  8  7  8  7  7  8  9 10  7  8  7  8  7  9
++         9 11  9  9 10  8  8  8  7  8  9  9  8  9  0  0  0
%c M  cc GPS ccc cccc cccc cccc cccc ccccc ccccc ccccc ccccc
%c cc cc ccc ccc cccc cccc cccc cccc ccccc ccccc ccccc ccccc
%f  0.0000000  0.000000000  0.00000000000  0.000000000000000
%f  0.0000000  0.000000000  0.00000000000  0.000000000000000
%i    0    0    0    0      0      0      0      0         0
%i    0    0    0    0      0      0      0      0         0
/* IAC                                ULTRA-RAPID PREDICTION
/* S/V CLOCKS ARE ALIGNED TO GNSS TIME                      
/* G:C1WC2W R:C1PC2P E:C1XC5X C:C2IC6I J:C1CC2S             
/* PCV:IGS14_2233 OL/AL:FES2004  NONE     YN ORB:CoN CLK:CoN
*  2022 11 05 17  0  0.00000000
PC06   -817.726491  32514.234770 -26711.322215      7.995079
PC07 -15096.404111  27438.499899  28223.542940    256.057345
PC08 -14875.380384  39445.586705  -3064.694435    507.206201
PC09   7054.161256  36484.424504 -19028.730947   -815.084169
PC10  -6020.051108  27997.108626  31144.420729     72.991455
PC11   -752.447147 -20158.191399 -19193.540904   -309.723437
PC12  14494.439520  -6466.480519 -22911.017336    288.877511
PC13  -8058.583224  39863.638436 -11564.925617    125.602818
PC14   8607.148798 -16613.111722  20729.811137    627.734241
PC16  -4657.424431  29270.300038 -29705.002470    120.813553
PC19   2581.048090  15560.138583 -23004.416667   -918.341966
PC20 -16672.736315  15275.493484 -16335.665200    845.866978
PC21  27315.748569  -5705.392057   -702.636210   -757.348906
PC22  21267.451862   6917.548217 -16711.399324   -810.419122
PC23 -11820.024961 -13570.291419 -21321.120632   -880.749797
PC24  13494.540332 -22924.450331   8372.018184   -848.061485
PC25   -233.656919 -25935.359039 -10274.937399     20.227507
PC26  17412.976329  -8260.557745  20156.160958    -31.677628
PC27 -19767.713476  -1633.161400  19617.241804     46.832036
PC28 -21181.303716 -17055.776671   6251.073292     32.543956
PC29  10570.544200  22859.952616  12018.876568     36.481955
PC30  -7266.586341  14921.784781  22428.768893      0.843984
PC32 -27274.975287   5838.939988    821.460853   -729.949038
PC33  -2533.148510 -15609.865594  22988.736823   -918.374359
PC34   6235.831751 -15807.729687 -22145.067943     32.666542
PC35  21370.903662  17272.881939  -4784.383782     74.674158
PC36   -822.598866  26149.451956   9748.707924   -864.114205
PC37 -17560.578324   6470.859502 -20695.369603   -741.122298
PC38 -18309.024208  37800.356248   4738.548690     36.063304
PC39  -7447.807643  26218.300815 -32112.092365     -0.794736
PC40 -22040.397431  20903.040034  29154.038117     -7.484679
PC41 -20858.357926  -7250.589223  17108.138024   -245.228064
PC42  17732.403251 -15029.309268  15486.803802   -607.559118
PC43  -9815.836416 -22889.118871 -12610.990806     23.398742
PC44  19978.386882    988.420123 -19455.222478    104.372582
PC45  11897.550153  13203.805904  21521.351098    -18.692815
PC46 -12599.705953  23988.215879  -6770.779451    -11.024363
PE01 -11962.702158 -11662.482163 -24429.106479   -560.272795
PE02  12120.266614  11518.789429  24426.765256      0.784078
PE03  23448.457403  15004.684133 -10081.660160   -616.994035
PE04 -28299.591451  -3093.279539  -8118.385785  -1152.124170
PE05   4684.461185  18351.100411 -22752.441512   -127.561229
PE07  16485.543916 -10980.544138  21994.566977   -719.045468
PE08  28292.417626   3066.282782   8149.015358   -627.389562
PE09 -16597.415730  10786.391295 -22010.714254   -718.592839
PE10 -14153.663813   8837.567927  24446.458467   -488.715928
PE11  -9160.094370  19545.736234  20246.372927   1464.475046
PE12 -16667.734792  -2386.093918  24346.377986   -260.959518
PE13   9554.970306 -18773.342319 -20787.451730    430.650599
PE14  24254.120045  16093.842034   4660.618107     48.163465
PE15  16629.770203   2683.046589 -24332.611396    709.396487
PE18 -12962.599854 -19706.933948 -14067.693086   -777.888699
PE19 -21568.487239 -16060.259324  12376.752569  -4075.482820
PE21   5365.852649 -22169.761529 -18857.195925   -492.900297
PE24 -21521.513398  20310.174047   1164.169064   -930.887228
PE25  -5661.029936  22268.659080  18675.607341   -591.957890
PE26  -3528.018703 -29078.400713  -4209.945926  -1810.501684
PE27  20937.490335 -20806.250366  -2110.170023   -432.451024
PE30  23886.075206  -6399.133669  16252.267100   -974.342071
PE31 -24032.402734   7232.872404 -15689.279968   -507.440963
PE33 -13849.787030 -22404.592206  13509.014565   -455.352632
PE34  13956.362710  22264.633043 -13646.529842    -13.092861
PE36   3041.512989  29000.848472   5099.750058   -456.443478
PG01 -13463.315805   6746.494823  21524.191706    256.314660
PG02  12428.793625 -10001.721499 -20647.855552   -639.216464
PG03 -22833.952429  10976.419525   7670.204024   -370.821671
PG04 -21550.355458   2038.999432 -15459.511871    -91.611881
PG05  19969.612515   -659.493912 -17730.909091   -103.150062
PG06   6372.744741  25263.793849  -4870.926603    510.682366
PG07  -7113.636458  21129.064639 -13632.457045    290.945147
PG08 -25492.867205  -5279.470869   6125.156458    -92.354944
PG09 -11935.019600  11276.698345 -20965.996888   -273.064292
PG10   4579.568986 -18954.254498  18040.306874    -10.615803
PG11  12008.936656  18162.816131 -15230.925576    -35.264272
PG12  23544.561364  -9060.318594   7870.186295   -300.717308
PG13  23029.834683  13434.304437     50.810358    419.211380
PG14  -7234.243395  19542.528653  16409.413620    -86.875974
PG15  25880.867302   2498.253208   5665.536644    -14.919396
PG16 -16735.525534  -5863.913520 -20194.346778   -526.844283
PG17   1981.636728  16733.518942  20955.656775    675.285796
PG18   6151.598753 -22456.282388 -12648.577249    -11.048377
PG19  13329.556262  18137.150785  14070.777731    233.381582
PG20  11089.259434  10888.775854 -21525.092647    472.550534
PG21 -16107.591575  -3029.435162  21630.503090    156.671547
PG22 -15474.255382 -17907.177343  12653.923351    358.978342
PG23  14317.609917 -20116.501324   9593.667586     -1.130916
PG24  15428.319416  -2562.952981  21140.967174     71.382116
PG25  19896.262813 -17286.883913  -1915.931413    389.650535
PG26  -7986.298914 -13830.246265 -21286.298123    234.875170
PG27 -22815.572498 -13151.705152  -5058.293250    184.456917
PG29  14111.170319  -8578.996354 -20861.675573   -565.033632
PG30    580.092101  26185.476999  -3391.512568   -536.937135
PG31  -7225.600997 -24513.455444  -6431.001265   -199.207453
PG32  -6268.537117 -17251.852337  19416.465711   -286.408129
PJ03 -25383.585352  23655.595358  29060.171818     -4.092039
PJ04 -33739.532582  22451.452588  -6493.249540    112.579844
PR01 -19164.710606   8271.283269 -14664.029840     17.392569
PR02   -414.585250  10855.564998 -23044.210624    -23.214780
PR03  17624.196123   7306.598424 -16858.757761     66.761299
PR04  25455.519171   -162.396953  -1452.719496    163.826718
PR05  19393.505435  -7485.678099  14764.498257    102.425113
PR07 -18298.391203  -7066.913091  16370.267223     43.795519
PR08 -25488.765071    286.278082   1420.328749    -67.935568
PR09   5498.523229 -22662.647182 -10406.435868     85.955380
PR11 -13524.263407   4571.432163 -21124.369919     22.080105
PR12 -14195.212173  19947.563183  -7168.290145     22.610644
PR13  -6692.285314  22891.984328   9038.247035    -28.542906
PR14   5754.429991  11933.959406  21807.150442     24.165526
PR15  13984.316045  -5401.747018  20658.643508     92.841291
PR17  15035.919787  20080.566371  -4743.336178    575.464556
PR18  14985.449121   8299.525760 -18862.765684     50.557488
PR19   8232.092879  -6400.397022 -23274.140862   -209.878969
PR20  -5336.596233 -21162.909039 -13218.645387    -81.596037
PR21 -15279.757023 -19375.509636   6401.796909   -347.313421
PR22 -14817.537867  -8009.551775  19189.001089     15.429055
PR24   6127.352765  21348.211288  12587.460597    124.665177
EOF
